{"type": "FeatureCollection", "features": [ {"type": "Feature", "properties": {"norad_id": 66473, "name": "STARLINK-35568", "group": "last-30-days", "lat": -40.80051178707298, "lon": -20.609329644479573, "alt_km": 417.40551093699105, "timestamp": "2025-12-09T05:43:19.508713+00:00", "meta": {"OBJECT_NAME": "STARLINK-35568", "OBJECT_ID": "2025-262T", "EPOCH": "2025-12-08T20:00:01.999008", "MEAN_MOTION": 15.50600501, "ECCENTRICITY": 0.0001508, "INCLINATION": 43.0006, "RA_OF_ASC_NODE": 93.8948, "ARG_OF_PERICENTER": 275.2021, "MEAN_ANOMALY": 234.3886, "EPHEMERIS_TYPE": 0, "CLASSIFICATION_TYPE": "U", "NORAD_CAT_ID": 66473, "ELEMENT_SET_NO": 999, "REV_AT_EPOCH": 501, "BSTAR": -0.00066594, "MEAN_MOTION_DOT": -0.00039244, "MEAN_MOTION_DDOT": 0}, "tle": {"line1": "1 66473U 25262T   25342.83335647 -.00039244  00000+0 -66594-3 0  9994", "line2": "2 66473  43.0006  93.8948 0001508 275.2021 234.3886 15.50600501  5018"}}, "geometry": {"type": "Point", "coordinates": [-20.609329644479573, -40.80051178707298]}}, {"type": "Feature", "properties": {"norad_id": 66474, "name": "STARLINK-35620", "group": "last-30-days", "lat": -41.26657837206967, "lon": -18.150829582984915, "alt_km": 417.3997545230486, "timestamp": "2025-12-09T05:43:19.508723+00:00", "meta": {"OBJECT_NAME": "STARLINK-35620", "OBJECT_ID": "2025-262U", "EPOCH": "2025-12-08T20:00:01.999008", "MEAN_MOTION": 15.5059785, "ECCENTRICITY": 0.0001478, "INCLINATION": 43.0006, "RA_OF_ASC_NODE": 93.8894, "ARG_OF_PERICENTER": 270.3514, "MEAN_ANOMALY": 241.1578, "EPHEMERIS_TYPE": 0, "CLASSIFICATION_TYPE": "U", "NORAD_CAT_ID": 66474, "ELEMENT_SET_NO": 999, "REV_AT_EPOCH": 501, "BSTAR": -0.00059796, "MEAN_MOTION_DOT": -0.00035287, "MEAN_MOTION_DDOT": 0}, "tle": {"line1": "1 66474U 25262U   25342.83335647 -.00035287  00000+0 -59796-3 0  9994", "line2": "2 66474  43.0006  93.8894 0001478 270.3514 241.1578 15.50597850  5014"}}, "geometry": {"type": "Point", "coordinates": [-18.150829582984915, -41.26657837206967]}}, {"type": "Feature", "properties": {"norad_id": 66475, "name": "STARLINK-35538", "group": "last-30-days", "lat": -41.678535468819135, "lon": -15.663034030956554, "alt_km": 417.44231163521636, "timestamp": "2025-12-09T05:43:19.508734+00:00", "meta": {"OBJECT_NAME": "STARLINK-35538", "OBJECT_ID": "2025-262V", "EPOCH": "2025-12-08T20:00:01.999008", "MEAN_MOTION": 15.5060432, "ECCENTRICITY": 0.0001516, "INCLINATION": 43.0006, "RA_OF_ASC_NODE": 93.8855, "ARG_OF_PERICENTER": 278.0262, "MEAN_ANOMALY": 235.3986, "EPHEMERIS_TYPE": 0, "CLASSIFICATION_TYPE": "U", "NORAD_CAT_ID": 66475, "ELEMENT_SET_NO": 999, "REV_AT_EPOCH": 501, "BSTAR": -0.00084296, "MEAN_MOTION_DOT": -0.00049527, "MEAN_MOTION_DDOT": 0}, "tle": {"line1": "1 66475U 25262V   25342.83335647 -.00049527  00000+0 -84296-3 0  9990", "line2": "2 66475  43.0006  93.8855 0001516 278.0262 235.3986 15.50604320  5019"}}, "geometry": {"type": "Point", "coordinates": [-15.663034030956554, -41.678535468819135]}}, {"type": "Feature", "properties": {"norad_id": 66476, "name": "STARLINK-35372", "group": "last-30-days", "lat": -42.03782807525227, "lon": -13.132059704601916, "alt_km": 417.44085550683485, "timestamp": "2025-12-09T05:43:19.508744+00:00", "meta": {"OBJECT_NAME": "STARLINK-35372", "OBJECT_ID": "2025-262W", "EPOCH": "2025-12-08T20:00:01.999008", "MEAN_MOTION": 15.50595744, "ECCENTRICITY": 0.0001506, "INCLINATION": 43.0005, "RA_OF_ASC_NODE": 93.8801, "ARG_OF_PERICENTER": 278.8737, "MEAN_ANOMALY": 236.4786, "EPHEMERIS_TYPE": 0, "CLASSIFICATION_TYPE": "U", "NORAD_CAT_ID": 66476, "ELEMENT_SET_NO": 999, "REV_AT_EPOCH": 490, "BSTAR": -0.00053845, "MEAN_MOTION_DOT": -0.0003182, "MEAN_MOTION_DDOT": 0}, "tle": {"line1": "1 66476U 25262W   25342.83335647 -.00031820  00000+0 -53845-3 0  9994", "line2": "2 66476  43.0005  93.8801 0001506 278.8737 236.4786 15.50595744  4900"}}, "geometry": {"type": "Point", "coordinates": [-13.132059704601916, -42.03782807525227]}}, {"type": "Feature", "properties": {"norad_id": 66477, "name": "STARLINK-35354", "group": "last-30-days", "lat": -42.582648962361624, "lon": -8.036164880188366, "alt_km": 417.4987698655623, "timestamp": "2025-12-09T05:43:19.508754+00:00", "meta": {"OBJECT_NAME": "STARLINK-35354", "OBJECT_ID": "2025-262X", "EPOCH": "2025-12-08T20:00:01.999008", "MEAN_MOTION": 15.50673742, "ECCENTRICITY": 0.000108, "INCLINATION": 43.0005, "RA_OF_ASC_NODE": 93.8697, "ARG_OF_PERICENTER": 261.1524, "MEAN_ANOMALY": 257.9141, "EPHEMERIS_TYPE": 0, "CLASSIFICATION_TYPE": "U", "NORAD_CAT_ID": 66477, "ELEMENT_SET_NO": 999, "REV_AT_EPOCH": 501, "BSTAR": -0.00093364, "MEAN_MOTION_DOT": -0.00054913, "MEAN_MOTION_DDOT": 0}, "tle": {"line1": "1 66477U 25262X   25342.83335647 -.00054913  00000+0 -93364-3 0  9993", "line2": "2 66477  43.0005  93.8697 0001080 261.1524 257.9141 15.50673742  5011"}}, "geometry": {"type": "Point", "coordinates": [-8.036164880188366, -42.582648962361624]}}, {"type": "Feature", "properties": {"norad_id": 66478, "name": "STARLINK-35283", "group": "last-30-days", "lat": -42.771083386804534, "lon": -5.428614557583364, "alt_km": 417.46881104488875, "timestamp": "2025-12-09T05:43:19.508764+00:00", "meta": {"OBJECT_NAME": "STARLINK-35283", "OBJECT_ID": "2025-262Y", "EPOCH": "2025-12-08T20:00:01.999008", "MEAN_MOTION": 15.50615284, "ECCENTRICITY": 0.0001466, "INCLINATION": 43.0006, "RA_OF_ASC_NODE": 93.8645, "ARG_OF_PERICENTER": 275.0867, "MEAN_ANOMALY": 246.0095, "EPHEMERIS_TYPE": 0, "CLASSIFICATION_TYPE": "U", "NORAD_CAT_ID": 66478, "ELEMENT_SET_NO": 999, "REV_AT_EPOCH": 501, "BSTAR": -0.0011571, "MEAN_MOTION_DOT": -0.00067726, "MEAN_MOTION_DDOT": 0}, "tle": {"line1": "1 66478U 25262Y   25342.83335647 -.00067726  00000+0 -11571-2 0  9999", "line2": "2 66478  43.0006  93.8645 0001466 275.0867 246.0095 15.50615284  5012"}}, "geometry": {"type": "Point", "coordinates": [-5.428614557583364, -42.771083386804534]}}, {"type": "Feature", "properties": {"norad_id": 66479, "name": "STARLINK-35581", "group": "last-30-days", "lat": -42.34587803149094, "lon": -10.527028602353933, "alt_km": 417.5826963020827, "timestamp": "2025-12-09T05:43:19.508779+00:00", "meta": {"OBJECT_NAME": "STARLINK-35581", "OBJECT_ID": "2025-262Z", "EPOCH": "2025-12-08T20:00:01.999008", "MEAN_MOTION": 15.50559299, "ECCENTRICITY": 0.0001447, "INCLINATION": 43.0005, "RA_OF_ASC_NODE": 93.8741, "ARG_OF_PERICENTER": 273.7657, "MEAN_ANOMALY": 243.6062, "EPHEMERIS_TYPE": 0, "CLASSIFICATION_TYPE": "U", "NORAD_CAT_ID": 66479, "ELEMENT_SET_NO": 999, "REV_AT_EPOCH": 501, "BSTAR": -0.00073275, "MEAN_MOTION_DOT": -0.00043062, "MEAN_MOTION_DDOT": 0}, "tle": {"line1": "1 66479U 25262Z   25342.83335647 -.00043062  00000+0 -73275-3 0  9997", "line2": "2 66479  43.0005  93.8741 0001447 273.7657 243.6062 15.50559299  5010"}}, "geometry": {"type": "Point", "coordinates": [-10.527028602353933, -42.34587803149094]}}, {"type": "Feature", "properties": {"norad_id": 66480, "name": "STARLINK-35670", "group": "last-30-days", "lat": -42.89852338541476, "lon": -2.8393000933041828, "alt_km": 417.45438826869395, "timestamp": "2025-12-09T05:43:19.508789+00:00", "meta": {"OBJECT_NAME": "STARLINK-35670", "OBJECT_ID": "2025-262AA", "EPOCH": "2025-12-08T20:00:01.999008", "MEAN_MOTION": 15.50602041, "ECCENTRICITY": 0.0001456, "INCLINATION": 43.0006, "RA_OF_ASC_NODE": 93.8595, "ARG_OF_PERICENTER": 276.5032, "MEAN_ANOMALY": 246.5052, "EPHEMERIS_TYPE": 0, "CLASSIFICATION_TYPE": "U", "NORAD_CAT_ID": 66480, "ELEMENT_SET_NO": 999, "REV_AT_EPOCH": 501, "BSTAR": -0.00067615, "MEAN_MOTION_DOT": -0.00039839, "MEAN_MOTION_DDOT": 0}, "tle": {"line1": "1 66480U 25262AA  25342.83335647 -.00039839  00000+0 -67615-3 0  9997", "line2": "2 66480  43.0006  93.8595 0001456 276.5032 246.5052 15.50602041  5013"}}, "geometry": {"type": "Point", "coordinates": [-2.8393000933041828, -42.89852338541476]}}, {"type": "Feature", "properties": {"norad_id": 66481, "name": "STARLINK-35698", "group": "last-30-days", "lat": -42.96738154191474, "lon": -0.22848078324428053, "alt_km": 417.4096389682718, "timestamp": "2025-12-09T05:43:19.508800+00:00", "meta": {"OBJECT_NAME": "STARLINK-35698", "OBJECT_ID": "2025-262AB", "EPOCH": "2025-12-08T20:00:01.999008", "MEAN_MOTION": 15.50610722, "ECCENTRICITY": 0.0001534, "INCLINATION": 43.0006, "RA_OF_ASC_NODE": 93.8545, "ARG_OF_PERICENTER": 275.9319, "MEAN_ANOMALY": 248.9929, "EPHEMERIS_TYPE": 0, "CLASSIFICATION_TYPE": "U", "NORAD_CAT_ID": 66481, "ELEMENT_SET_NO": 999, "REV_AT_EPOCH": 501, "BSTAR": -0.00097067, "MEAN_MOTION_DOT": -0.00056938, "MEAN_MOTION_DDOT": 0}, "tle": {"line1": "1 66481U 25262AB  25342.83335647 -.00056938  00000+0 -97067-3 0  9991", "line2": "2 66481  43.0006  93.8545 0001534 275.9319 248.9929 15.50610722  5011"}}, "geometry": {"type": "Point", "coordinates": [-0.22848078324428053, -42.96738154191474]}}, {"type": "Feature", "properties": {"norad_id": 66482, "name": "STARLINK-35648", "group": "last-30-days", "lat": -42.9765818384585, "lon": 2.3860299594894903, "alt_km": 417.47105475211174, "timestamp": "2025-12-09T05:43:19.508809+00:00", "meta": {"OBJECT_NAME": "STARLINK-35648", "OBJECT_ID": "2025-262AC", "EPOCH": "2025-12-08T20:00:01.999008", "MEAN_MOTION": 15.50615261, "ECCENTRICITY": 0.000142, "INCLINATION": 43.0006, "RA_OF_ASC_NODE": 93.8497, "ARG_OF_PERICENTER": 273.9249, "MEAN_ANOMALY": 252.9134, "EPHEMERIS_TYPE": 0, "CLASSIFICATION_TYPE": "U", "NORAD_CAT_ID": 66482, "ELEMENT_SET_NO": 999, "REV_AT_EPOCH": 485, "BSTAR": -0.0010257, "MEAN_MOTION_DOT": -0.0006013, "MEAN_MOTION_DDOT": 0}, "tle": {"line1": "1 66482U 25262AC  25342.83335647 -.00060130  00000+0 -10257-2 0  9996", "line2": "2 66482  43.0006  93.8497 0001420 273.9249 252.9134 15.50615261  4859"}}, "geometry": {"type": "Point", "coordinates": [2.3860299594894903, -42.9765818384585]}}]}